NORAD_CAT_ID,OBJECT_NAME,OBJECT_TYPE,EPOCH,MEAN_MOTION,ECCENTRICITY,INCLINATION,RA_OF_ASC_NODE,ARG_OF_PERICENTER,MEAN_ANOMALY,BSTAR,MEAN_MOTION_DOT,MEAN_MOTION_DDOT,TLE_LINE0,TLE_LINE1,TLE_LINE2,SEMIMAJOR_AXIS,PERIOD,APOGEE,PERIGEE,DECAYED
51991.0,STARLINK-3652,PAYLOAD,2024-05-11 08:02:16,15.08875764,0.0001693,53.2142,154.9946,75.8243,284.2937,0.0006078,9.408e-05,0.0,0 STARLINK-3652,1 51991U 22025AM  24132.33491836  .00009408  00000-0  60780-3 0  9990,2 51991  53.2142 154.9946 0001693  75.8243 284.2937 15.08875764121404,6917.771,95.435,540.807,538.465,0.0
51991.0,STARLINK-3652,PAYLOAD,2024-05-12 04:42:18,15.08799041,0.0001316,53.215,151.1258,97.1507,262.9635,-0.0012042,-0.0001938,0.0,0 STARLINK-3652,1 51991U 22025AM  24133.19605226 -.00019380  00000-0 -12042-2 0  9994,2 51991  53.2150 151.1258 0001316  97.1507 262.9635 15.08799041121535,6918.006,95.44,540.781,538.96,0.0
51991.0,STARLINK-3652,PAYLOAD,2024-05-12 11:03:52,15.08763569,0.0001605,53.2154,149.937,115.4341,244.6818,0.00095506,0.00014913,0.0,0 STARLINK-3652,1 51991U 22025AM  24133.46102487  .00014913  00000-0  95506-3 0  9997,2 51991  53.2154 149.9370 0001605 115.4341 244.6818 15.08763569120489,6918.114,95.442,541.089,538.869,0.0
51991.0,STARLINK-3652,PAYLOAD,2024-05-13 04:33:08,15.08819225,0.0001529,53.2157,146.6673,118.3067,241.8079,0.0014744,0.00023242,0.0,0 STARLINK-3652,1 51991U 22025AM  24134.18968049  .00023242  00000-0  14744-2 0  9990,2 51991  53.2157 146.6673 0001529 118.3067 241.8079 15.08819225121686,6917.944,95.439,540.867,538.751,0.0
51991.0,STARLINK-3652,PAYLOAD,2024-05-13 07:43:54,15.08846305,0.000175,53.216,146.071,120.7528,239.3637,0.0027592,0.00043906,0.0,0 STARLINK-3652,1 51991U 22025AM  24134.32215940  .00043906  00000-0  27592-2 0  9995,2 51991  53.2160 146.0710 0001750 120.7528 239.3637 15.08846305121705,6917.861,95.437,540.937,538.515,0.0
51991.0,STARLINK-3652,PAYLOAD,2024-05-14 04:23:54,15.08882775,0.0001835,53.2155,142.2068,126.2602,233.856,0.0014534,0.00022946,0.0,0 STARLINK-3652,1 51991U 22025AM  24135.18326650  .00022946  00000-0  14534-2 0  9994,2 51991  53.2155 142.2068 0001835 126.2602 233.8560 15.08882775121830,6917.75,95.435,540.884,538.345,0.0
51991.0,STARLINK-3652,PAYLOAD,2024-05-14 07:34:40,15.08873075,0.0001753,53.2152,141.6105,123.0563,237.0597,0.0008016,0.00012504,0.0,0 STARLINK-3652,1 51991U 22025AM  24135.31574406  .00012504  00000-0  80160-3 0  9991,2 51991  53.2152 141.6105 0001753 123.0563 237.0597 15.08873075121853,6917.779,95.435,540.857,538.432,0.0
51991.0,STARLINK-3652,PAYLOAD,2024-05-14 17:06:58,15.08871505,0.0001696,53.2147,139.8258,125.0135,235.1017,0.00043272,6.611e-05,0.0,0 STARLINK-3652,1 51991U 22025AM  24135.71317659  .00006611  00000-0  43272-3 0  9995,2 51991  53.2147 139.8258 0001696 125.0135 235.1017 15.08871505121917,6917.784,95.436,540.822,538.476,0.0
51991.0,STARLINK-3652,PAYLOAD,2024-05-15 04:14:40,15.08866343,0.0002498,53.2153,137.7457,104.8276,255.2993,0.00026392,3.917e-05,0.0,0 STARLINK-3652,1 51991U 22025AM  24136.17685585  .00003917  00000-0  26392-3 0  9992,2 51991  53.2153 137.7457 0002498 104.8276 255.2993 15.08866343121981,6917.8,95.436,541.393,537.937,0.0
51991.0,STARLINK-3652,PAYLOAD,2024-05-15 09:00:49,15.08857236,0.0001944,53.2164,136.8544,122.6029,237.5151,0.00016606,2.357e-05,0.0,0 STARLINK-3652,1 51991U 22025AM  24136.37557367  .00002357  00000-0  16606-3 0  9994,2 51991  53.2164 136.8544 0001944 122.6029 237.5151 15.08857236122014,6917.828,95.436,541.038,538.348,0.0
51991.0,STARLINK-3652,PAYLOAD,2024-05-16 04:05:26,15.08852302,0.0001867,53.2165,133.2861,117.0218,243.0965,-0.00010292,-1.926e-05,0.0,0 STARLINK-3652,1 51991U 22025AM  24137.17045066 -.00001926  00000-0 -10292-3 0  9999,2 51991  53.2165 133.2861 0001867 117.0218 243.0965 15.08852302122137,6917.843,95.437,540.999,538.416,0.0
51991.0,STARLINK-3652,PAYLOAD,2024-05-16 08:51:36,15.08848375,0.000175,53.2169,132.3928,120.1704,239.9462,-5.266e-05,-1.126e-05,0.0,0 STARLINK-3652,1 51991U 22025AM  24137.36917660 -.00001126  00000-0 -52660-4 0  9996,2 51991  53.2169 132.3928 0001750 120.1704 239.9462 15.08848375122165,6917.855,95.437,540.93,538.509,0.0
51991.0,STARLINK-3652,PAYLOAD,2024-05-16 16:48:31,15.08853568,0.0001582,53.2163,130.9044,116.6979,243.4175,7.5643e-06,-1.68e-06,0.0,0 STARLINK-3652,1 51991U 22025AM  24137.70036887 -.00000168  00000-0  75643-5 0  9998,2 51991  53.2163 130.9044 0001582 116.6979 243.4175 15.08853568122216,6917.839,95.437,540.798,538.61,0.0
51991.0,STARLINK-3652,PAYLOAD,2024-05-17 05:31:37,15.08844568,0.0001537,53.2157,128.5258,117.1321,242.9828,2.1827e-05,5.9e-07,0.0,0 STARLINK-3652,1 51991U 22025AM  24138.23029157  .00000059  00000-0  21827-4 0  9991,2 51991  53.2157 128.5258 0001537 117.1321 242.9828 15.08844568122293,6917.866,95.437,540.795,538.668,0.0
51991.0,STARLINK-3652,PAYLOAD,2024-05-17 08:42:23,15.08845986,0.0001551,53.2161,127.9314,117.2842,242.8308,6.7628e-06,-1.8e-06,0.0,0 STARLINK-3652,1 51991U 22025AM  24138.36277041 -.00000180  00000-0  67628-5 0  9998,2 51991  53.2161 127.9314 0001551 117.2842 242.8308 15.08845986121228,6917.862,95.437,540.8,538.654,0.0
51991.0,STARLINK-3652,PAYLOAD,2024-05-17 16:39:18,15.08849328,0.00015,53.2163,126.4437,118.7382,241.3761,6.2942e-05,7.14e-06,0.0,0 STARLINK-3652,1 51991U 22025AM  24138.69396476  .00000714  00000-0  62942-4 0  9993,2 51991  53.2163 126.4437 0001500 118.7382 241.3761 15.08849328121275,6917.852,95.437,540.755,538.679,0.0
51991.0,STARLINK-3652,PAYLOAD,2024-05-18 08:33:09,15.08845628,0.0001754,53.2173,123.4679,117.5779,242.5391,0.0001028,1.349e-05,0.0,0 STARLINK-3652,1 51991U 22025AM  24139.35636455  .00001349  00000-0  10280-3 0  9993,2 51991  53.2173 123.4679 0001754 117.5779 242.5391 15.08845628122462,6917.863,95.437,540.942,538.515,0.0
51991.0,STARLINK-3652,PAYLOAD,2024-05-18 16:30:05,15.08847323,0.0001741,53.2168,121.9802,123.0055,237.1105,8.1198e-05,1.005e-05,0.0,0 STARLINK-3652,1 51991U 22025AM  24139.68756236  .00001005  00000-0  81198-4 0  9995,2 51991  53.2168 121.9802 0001741 123.0055 237.1105 15.08847323121424,6917.858,95.437,540.927,538.519,0.0
51991.0,STARLINK-3652,PAYLOAD,2024-05-19 05:13:11,15.08830162,0.0001489,53.2167,119.6046,113.7082,246.4066,-2.5446e-05,-6.93e-06,0.0,0 STARLINK-3652,1 51991U 22025AM  24140.21749784 -.00000693  00000-0 -25446-4 0  9994,2 51991  53.2167 119.6046 0001489 113.7082 246.4066 15.08830162122593,6917.91,95.438,540.806,538.745,0.0
51991.0,STARLINK-3652,PAYLOAD,2024-05-20 03:28:35,15.08840766,0.0001567,53.2171,115.4412,112.0551,248.0607,7.4576e-05,8.99e-06,0.0,0 STARLINK-3652,1 51991U 22025AM  24141.14485059  .00000899  00000-0  74576-4 0  9993,2 51991  53.2171 115.4412 0001567 112.0551 248.0607 15.08840766122735,6917.878,95.438,540.827,538.659,0.0
51991.0,STARLINK-3652,PAYLOAD,2024-05-20 05:03:58,15.08844965,0.0001514,53.2171,115.1441,112.834,247.2812,3.0299e-05,1.94e-06,0.0,0 STARLINK-3652,1 51991U 22025AM  24141.21108955  .00000194  00000-0  30299-4 0  9990,2 51991  53.2171 115.1441 0001514 112.8340 247.2812 15.08844965121654,6917.865,95.437,540.778,538.683,0.0
51991.0,STARLINK-3652,PAYLOAD,2024-05-21 04:54:46,15.08830852,0.0001301,53.2165,110.6843,104.9856,255.128,9.01e-05,1.146e-05,0.0,0 STARLINK-3652,1 51991U 22025AM  24142.20469968  .00001146  00000-0  90100-4 0  9999,2 51991  53.2165 110.6843 0001301 104.9856 255.1280 15.08830852122895,6917.908,95.438,540.673,538.873,0.0
51991.0,STARLINK-3652,PAYLOAD,2024-05-21 08:05:32,15.08831192,0.00013,53.2165,110.0897,104.5871,255.5266,8.7724e-05,1.108e-05,0.0,0 STARLINK-3652,1 51991U 22025AM  24142.33718020  .00001108  00000-0  87724-4 0  9995,2 51991  53.2165 110.0897 0001300 104.5871 255.5266 15.08831192121828,6917.907,95.438,540.672,538.873,0.0
51991.0,STARLINK-3652,PAYLOAD,2024-05-22 04:45:33,15.08834857,0.0001334,53.2172,106.2238,105.6475,254.4665,1.9474e-05,2.2e-07,0.0,0 STARLINK-3652,1 51991U 22025AM  24143.19830258  .00000022  00000-0  19474-4 0  9999,2 51991  53.2172 106.2238 0001334 105.6475 254.4665 15.08834857121957,6917.896,95.438,540.684,538.838,0.0
51991.0,STARLINK-3652,PAYLOAD,2024-05-23 04:36:20,15.08835549,0.0001273,53.2173,101.7631,100.2504,259.8632,0.00010744,1.422e-05,0.0,0 STARLINK-3652,1 51991U 22025AM  24144.19190313  .00001422  00000-0  10744-3 0  9996,2 51991  53.2173 101.7631 0001273 100.2504 259.8632 15.08835549123191,6917.894,95.438,540.64,538.878,0.0
51991.0,STARLINK-3652,PAYLOAD,2024-05-23 06:11:43,15.08836442,0.0001299,53.2174,101.4657,103.1829,256.9308,0.00011474,1.538e-05,0.0,0 STARLINK-3652,1 51991U 22025AM  24144.25814255  .00001538  00000-0  11474-3 0  9990,2 51991  53.2174 101.4657 0001299 103.1829 256.9308 15.08836442122119,6917.891,95.438,540.655,538.858,0.0
51991.0,STARLINK-3652,PAYLOAD,2024-05-24 04:27:06,15.08845248,0.0001277,53.2173,97.3012,96.8613,263.2525,0.00014465,2.015e-05,0.0,0 STARLINK-3652,1 51991U 22025AM  24145.18549752  .00002015  00000-0  14465-3 0  9994,2 51991  53.2173  97.3012 0001277  96.8613 263.2525 15.08845248123343,6917.864,95.437,540.613,538.846,0.0
51991.0,STARLINK-3652,PAYLOAD,2024-05-24 06:02:30,15.08846588,0.0001293,53.2175,97.0017,94.3335,265.7805,0.00015653,2.205e-05,0.0,0 STARLINK-3652,1 51991U 22025AM  24145.25173636  .00002205  00000-0  15653-3 0  9997,2 51991  53.2175  97.0017 0001293  94.3335 265.7805 15.08846588122265,6917.86,95.437,540.62,538.831,0.0
51991.0,STARLINK-3652,PAYLOAD,2024-05-25 04:17:54,15.08839182,0.0001351,53.2182,92.8331,81.0321,279.0824,2.4203e-05,9.7e-07,0.0,0 STARLINK-3652,1 51991U 22025AM  24146.17910302  .00000097  00000-0  24203-4 0  9997,2 51991  53.2182  92.8331 0001351  81.0321 279.0824 15.08839182123495,6917.883,95.438,540.682,538.813,0.0
51991.0,STARLINK-3652,PAYLOAD,2024-05-25 13:50:13,15.08838581,5.33e-05,53.2168,91.0605,114.54,245.5648,-1.4714e-06,-3.11e-06,0.0,0 STARLINK-3652,1 51991U 22025AM  24146.57654050 -.00000311  00000-0 -14714-5 0  9994,2 51991  53.2168  91.0605 0000533 114.5400 245.5648 15.08838581122465,6917.885,95.438,540.118,539.381,0.0
